{
  "type": "FeatureCollection",
  "features": [
    {
      "type": "Feature",
      "properties": {
        "norad_id": 43823,
        "name": "GEO-KOMPSAT-2A",
        "group": "weather",
        "lat": 0.04386092993422963,
        "lon": 168.9282051270717,
        "alt_km": 35785.773784326084,
        "timestamp": "2025-12-08T21:31:04.318502+00:00",
        "meta_object_name": "GEO-KOMPSAT-2A",
        "meta_object_id": "2018-100A",
        "meta_epoch": "2025-12-08T09:04:40.751616",
        "meta_mean_motion": 1.00270893,
        "meta_eccentricity": 1.774e-05,
        "meta_inclination": 0.0576,
        "meta_ra_of_asc_node": 113.8278,
        "meta_arg_of_pericenter": 87.1447,
        "meta_mean_anomaly": 140.8536,
        "meta_ephemeris_type": 0,
        "meta_classification_type": "U",
        "meta_norad_cat_id": 43823,
        "meta_element_set_no": 999,
        "meta_rev_at_epoch": 2571,
        "meta_bstar": 0,
        "meta_mean_motion_dot": -3.41e-06,
        "meta_mean_motion_ddot": 0,
        "tle_line1": "1 43823U 18100A   25342.37824944 -.00000341  00000+0  00000+0 0  9994",
        "tle_line2": "2 43823   0.0576 113.8278 0000177  87.1447 140.8536  1.00270893 25718"
      },
      "geometry": {
        "type": "Point",
        "coordinates": [
          168.9282051270717,
          0.04386092993422963
        ]
      }
    },
    {
      "type": "Feature",
      "properties": {
        "norad_id": 44387,
        "name": "METEOR-M2 2",
        "group": "weather",
        "lat": 58.320137645702424,
        "lon": 157.2822741306568,
        "alt_km": 804.5347443312339,
        "timestamp": "2025-12-08T21:31:04.318513+00:00",
        "meta_object_name": "METEOR-M2 2",
        "meta_object_id": "2019-038A",
        "meta_epoch": "2025-12-08T14:12:36.678816",
        "meta_mean_motion": 14.24289142,
        "meta_eccentricity": 0.00011545,
        "meta_inclination": 98.8969,
        "meta_ra_of_asc_node": 322.2703,
        "meta_arg_of_pericenter": 156.1709,
        "meta_mean_anomaly": 203.9523,
        "meta_ephemeris_type": 0,
        "meta_classification_type": "U",
        "meta_norad_cat_id": 44387,
        "meta_element_set_no": 999,
        "meta_rev_at_epoch": 33416,
        "meta_bstar": 0.00017381937,
        "meta_mean_motion_dot": 3.56e-06,
        "meta_mean_motion_ddot": 0,
        "tle_line1": "1 44387U 19038A   25342.59209119  .00000356  00000+0  17382-3 0  9996",
        "tle_line2": "2 44387  98.8969 322.2703 0001154 156.1709 203.9523 14.24289142334164"
      },
      "geometry": {
        "type": "Point",
        "coordinates": [
          157.2822741306568,
          58.320137645702424
        ]
      }
    },
    {
      "type": "Feature",
      "properties": {
        "norad_id": 47719,
        "name": "ARKTIKA-M 1",
        "group": "weather",
        "lat": 60.27594757532878,
        "lon": -157.71198553241956,
        "alt_km": 35932.79968778048,
        "timestamp": "2025-12-08T21:31:04.318527+00:00",
        "meta_object_name": "ARKTIKA-M 1",
        "meta_object_id": "2021-016A",
        "meta_epoch": "2025-12-01T02:41:41.634816",
        "meta_mean_motion": 2.00613156,
        "meta_eccentricity": 0.71974708,
        "meta_inclination": 63.1756,
        "meta_ra_of_asc_node": 85.6045,
        "meta_arg_of_pericenter": 269.084,
        "meta_mean_anomaly": 15.7076,
        "meta_ephemeris_type": 0,
        "meta_classification_type": "U",
        "meta_norad_cat_id": 47719,
        "meta_element_set_no": 999,
        "meta_rev_at_epoch": 3481,
        "meta_bstar": 0,
        "meta_mean_motion_dot": -1.2e-07,
        "meta_mean_motion_ddot": 0,
        "tle_line1": "1 47719U 21016A   25335.11228744 -.00000012  00000+0  00000+0 0  9997",
        "tle_line2": "2 47719  63.1756  85.6045 7197470 269.0840  15.7076  2.00613156 34816"
      },
      "geometry": {
        "type": "Point",
        "coordinates": [
          -157.71198553241956,
          60.27594757532878
        ]
      }
    },
    {
      "type": "Feature",
      "properties": {
        "norad_id": 49008,
        "name": "FENGYUN 3E",
        "group": "weather",
        "lat": 38.612393853846655,
        "lon": 170.52668897688284,
        "alt_km": 823.1720210009607,
        "timestamp": "2025-12-08T21:31:04.318542+00:00",
        "meta_object_name": "FENGYUN 3E",
        "meta_object_id": "2021-062A",
        "meta_epoch": "2025-12-08T14:05:31.742016",
        "meta_mean_motion": 14.19879212,
        "meta_eccentricity": 5.756e-05,
        "meta_inclination": 98.7476,
        "meta_ra_of_asc_node": 343.1576,
        "meta_arg_of_pericenter": 290.535,
        "meta_mean_anomaly": 69.5765,
        "meta_ephemeris_type": 0,
        "meta_classification_type": "U",
        "meta_norad_cat_id": 49008,
        "meta_element_set_no": 999,
        "meta_rev_at_epoch": 22953,
        "meta_bstar": 4.8151068e-05,
        "meta_mean_motion_dot": 5.8e-07,
        "meta_mean_motion_ddot": 0,
        "tle_line1": "1 49008U 21062A   25342.58717294  .00000058  00000+0  48151-4 0  9996",
        "tle_line2": "2 49008  98.7476 343.1576 0000575 290.5350  69.5765 14.19879212229537"
      },
      "geometry": {
        "type": "Point",
        "coordinates": [
          170.52668897688284,
          38.612393853846655
        ]
      }
    },
    {
      "type": "Feature",
      "properties": {
        "norad_id": 51850,
        "name": "GOES 18",
        "group": "weather",
        "lat": -0.0037247155194862253,
        "lon": -96.34522319496776,
        "alt_km": 35783.811495616406,
        "timestamp": "2025-12-08T21:31:04.318554+00:00",
        "meta_object_name": "GOES 18",
        "meta_object_id": "2022-021A",
        "meta_epoch": "2025-12-08T12:57:10.984608",
        "meta_mean_motion": 1.00270666,
        "meta_eccentricity": 7.221e-05,
        "meta_inclination": 0.0107,
        "meta_ra_of_asc_node": 92.8098,
        "meta_arg_of_pericenter": 204.2703,
        "meta_mean_anomaly": 197.7607,
        "meta_ephemeris_type": 0,
        "meta_classification_type": "U",
        "meta_norad_cat_id": 51850,
        "meta_element_set_no": 999,
        "meta_rev_at_epoch": 468,
        "meta_bstar": 0,
        "meta_mean_motion_dot": 9.9e-07,
        "meta_mean_motion_ddot": 0,
        "tle_line1": "1 51850U 22021A   25342.53971047  .00000099  00000+0  00000+0 0  9994",
        "tle_line2": "2 51850   0.0107  92.8098 0000722 204.2703 197.7607  1.00270666  4687"
      },
      "geometry": {
        "type": "Point",
        "coordinates": [
          -96.34522319496776,
          -0.0037247155194862253
        ]
      }
    },
    {
      "type": "Feature",
      "properties": {
        "norad_id": 54234,
        "name": "NOAA 21 (JPSS-2)",
        "group": "weather",
        "lat": 27.434861619883904,
        "lon": 103.83632047178305,
        "alt_km": 826.2835267030878,
        "timestamp": "2025-12-08T21:31:04.318565+00:00",
        "meta_object_name": "NOAA 21 (JPSS-2)",
        "meta_object_id": "2022-150A",
        "meta_epoch": "2025-12-08T14:02:13.892064",
        "meta_mean_motion": 14.19522629,
        "meta_eccentricity": 0.00023794,
        "meta_inclination": 98.7457,
        "meta_ra_of_asc_node": 278.9451,
        "meta_arg_of_pericenter": 46.1042,
        "meta_mean_anomaly": 314.033,
        "meta_ephemeris_type": 0,
        "meta_classification_type": "U",
        "meta_norad_cat_id": 54234,
        "meta_element_set_no": 999,
        "meta_rev_at_epoch": 15950,
        "meta_bstar": 0.0001350313,
        "meta_mean_motion_dot": 2.41e-06,
        "meta_mean_motion_ddot": 0,
        "tle_line1": "1 54234U 22150A   25342.58488301  .00000241  00000+0  13503-3 0  9992",
        "tle_line2": "2 54234  98.7457 278.9451 0002379  46.1042 314.0330 14.19522629159509"
      },
      "geometry": {
        "type": "Point",
        "coordinates": [
          103.83632047178305,
          27.434861619883904
        ]
      }
    },
    {
      "type": "Feature",
      "properties": {
        "norad_id": 54743,
        "name": "METEOSAT-12 (MTG-I1)",
        "group": "weather",
        "lat": 0.13847743912844931,
        "lon": 40.44236833927127,
        "alt_km": 35790.43330626735,
        "timestamp": "2025-12-08T21:31:04.318582+00:00",
        "meta_object_name": "METEOSAT-12 (MTG-I1)",
        "meta_object_id": "2022-170C",
        "meta_epoch": "2025-12-08T06:45:14.433120",
        "meta_mean_motion": 1.00274861,
        "meta_eccentricity": 0.00014895,
        "meta_inclination": 0.7252,
        "meta_ra_of_asc_node": 30.8853,
        "meta_arg_of_pericenter": 223.0145,
        "meta_mean_anomaly": 284.4666,
        "meta_ephemeris_type": 0,
        "meta_classification_type": "U",
        "meta_norad_cat_id": 54743,
        "meta_element_set_no": 999,
        "meta_rev_at_epoch": 1106,
        "meta_bstar": 0,
        "meta_mean_motion_dot": -4e-08,
        "meta_mean_motion_ddot": 0,
        "tle_line1": "1 54743U 22170C   25342.28141705 -.00000004  00000+0  00000+0 0  9992",
        "tle_line2": "2 54743   0.7252  30.8853 0001489 223.0145 284.4666  1.00274861 11060"
      },
      "geometry": {
        "type": "Point",
        "coordinates": [
          40.44236833927127,
          0.13847743912844931
        ]
      }
    }
  ]
}